{
  "norad_id": 57856,
  "name": "STARLINK-30291",
  "history": [
    {
      "epoch": "2026-03-28T19:03:56.091744Z",
      "apogee_km": 475.741925278443,
      "perigee_km": 474.66567663906153,
      "latitude_deg": 2.783791999426376e-05,
      "longitude_deg": 83.14517366413101,
      "height_km": 476.0849504637675,
      "semi_major_axis_km": 6853.340800958752,
      "eccentricity": 7.852e-05,
      "inclination_deg": 53.1606,
      "raan_deg": 195.3386,
      "arg_perigee_deg": 88.1218,
      "mean_anomaly_deg": 271.9873,
      "mean_motion_rev_day": 15.30203774
    }
  ]
}